ADRAS-J                 
1 58992U 24034A   24174.20121971  .00003671  00000+0  34323-3 0  9991
2 58992  98.2116 147.4471 0044684  34.4425 325.9675 14.94054178 18614
